*******************************************************************************
Ephemeris / WWW_USER Mon Mar 24 08:04:43 2025 Pasadena, USA      / Horizons    
*******************************************************************************
Target body name: (2018 US2)                      {source: JPL#14}
Center body name: Earth (399)                     {source: DE441}
Center-site name: Mauna Kea
*******************************************************************************
Start time      : A.D. 2018-Nov-11 03:53:00.0000 UT      
Stop  time      : A.D. 2018-Nov-11 16:18:00.0000 UT      
Step-size       : 1 minutes
*******************************************************************************
Target pole/equ : undefined
Target radii    : undefined                                                    
Center geodetic : 204.5278, 19.8260847, 4.21024   {E-lon(deg),Lat(deg),Alt(km)}
Center cylindric: 204.5278, 6006.35451, 2151.0229 {E-lon(deg),Dxy(km),Dz(km)}
Center pole/equ : ITRF93                          {East-longitude positive}
Center radii    : 6378.137, 6378.137, 6356.752 km {Equator_a, b, pole_c}       
Target primary  : Sun
Vis. interferer : MOON (R_eq= 1737.400) km        {source: DE441}
Rel. light bend : Sun                             {source: DE441}
Rel. lght bnd GM: 1.3271E+11 km^3/s^2                                          
Small-body perts: Yes                             {source: SB441-N16}
Atmos refraction: NO (AIRLESS)
RA format       : HMS
Time format     : CAL 
Calendar mode   : Mixed Julian/Gregorian
RTS-only print  : NO       
EOP file        : eop.250321.p250617                                           
EOP coverage    : DATA-BASED 1962-JAN-20 TO 2025-MAR-21. PREDICTS-> 2025-JUN-16
Units conversion: 1 au= 149597870.700 km, c= 299792.458 km/s, 1 day= 86400.0 s 
Table cut-offs 1: Elevation (-90.0deg=NO ),Airmass (>38.000=NO), Daylight (YES)
Table cut-offs 2: Solar elongation (  0.0,180.0=NO ),Local Hour Angle( 0.0=NO )
Table cut-offs 3: RA/DEC angular rate (     0.0=NO )                           
*******************************************************************************
Initial IAU76/J2000 heliocentric ecliptic osculating elements (au, days, deg.):
  EPOCH=  2458424.5 ! 2018-Nov-02.00 (TDB)         Residual RMS= .2503         
   EC= .6580934192644969   QR= 1.019516546973241   TP= 2458405.4003266119      
   OM= 225.9089147719754   W=  151.3321843630243   IN= 7.044798776353047       
  Equivalent ICRF heliocentric cartesian coordinates (au, au/d):
   X= 8.026033061055595E-01  Y= 6.200562709856074E-01  Z= 2.826199844552283E-01
  VX=-1.102263624249032E-02 VY= 1.780430100977025E-02 VZ= 4.937770740848229E-03
Asteroid physical parameters (km, seconds, rotational period in hours):        
   GM= n.a.                RAD= n.a.               ROTPER= n.a.                
   H= 24.88                G= .150                 B-V= n.a.                   
                           ALBEDO= n.a.            STYP= n.a.                  
*******************************************************************************
 Date__(UT)__HR:MN     R.A._________(ICRF)_________DEC
******************************************************
$$SOE
 2018-Nov-11 07:59     04 36 54.490642 +16 05 05.31682
 2018-Nov-11 08:00     04 36 54.625741 +16 05 03.01376
 2018-Nov-11 08:01     04 36 54.760745 +16 05 00.71062
 2018-Nov-11 08:02     04 36 54.895656 +16 04 58.40738
 2018-Nov-11 08:03     04 36 55.030473 +16 04 56.10405
 2018-Nov-11 08:04     04 36 55.165196 +16 04 53.80063
 2018-Nov-11 08:05     04 36 55.299827 +16 04 51.49712
 2018-Nov-11 08:06     04 36 55.434364 +16 04 49.19351
 2018-Nov-11 08:07     04 36 55.568809 +16 04 46.88981
 2018-Nov-11 08:08     04 36 55.703162 +16 04 44.58601
 2018-Nov-11 08:09     04 36 55.837423 +16 04 42.28212
 2018-Nov-11 08:10     04 36 55.971592 +16 04 39.97812
 2018-Nov-11 08:11     04 36 56.105669 +16 04 37.67402
 2018-Nov-11 08:12     04 36 56.239656 +16 04 35.36982
 2018-Nov-11 08:13     04 36 56.373551 +16 04 33.06552
 2018-Nov-11 08:14     04 36 56.507356 +16 04 30.76111
 2018-Nov-11 08:15     04 36 56.641070 +16 04 28.45659
 2018-Nov-11 08:16     04 36 56.774695 +16 04 26.15197
 2018-Nov-11 08:17     04 36 56.908230 +16 04 23.84723
 2018-Nov-11 08:18     04 36 57.041675 +16 04 21.54239
 2018-Nov-11 08:19     04 36 57.175031 +16 04 19.23744
 2018-Nov-11 08:20     04 36 57.308298 +16 04 16.93237
 2018-Nov-11 08:21     04 36 57.441477 +16 04 14.62719
 2018-Nov-11 08:22     04 36 57.574567 +16 04 12.32189
 2018-Nov-11 08:23     04 36 57.707570 +16 04 10.01647
 2018-Nov-11 08:24     04 36 57.840485 +16 04 07.71094
 2018-Nov-11 08:25     04 36 57.973312 +16 04 05.40529
 2018-Nov-11 08:26     04 36 58.106052 +16 04 03.09952
 2018-Nov-11 08:27     04 36 58.238706 +16 04 00.79362
 2018-Nov-11 08:28     04 36 58.371273 +16 03 58.48761
 2018-Nov-11 08:29     04 36 58.503754 +16 03 56.18146
 2018-Nov-11 08:30     04 36 58.636149 +16 03 53.87520
 2018-Nov-11 08:31     04 36 58.768458 +16 03 51.56880
 2018-Nov-11 08:32     04 36 58.900683 +16 03 49.26228
 2018-Nov-11 08:33     04 36 59.032822 +16 03 46.95563
 2018-Nov-11 08:34     04 36 59.164877 +16 03 44.64885
 2018-Nov-11 08:35     04 36 59.296847 +16 03 42.34193
 2018-Nov-11 08:36     04 36 59.428734 +16 03 40.03489
 2018-Nov-11 08:37     04 36 59.560537 +16 03 37.72771
 2018-Nov-11 08:38     04 36 59.692256 +16 03 35.42039
 2018-Nov-11 08:39     04 36 59.823892 +16 03 33.11294
 2018-Nov-11 08:40     04 36 59.955446 +16 03 30.80535
 2018-Nov-11 08:41     04 37 00.086917 +16 03 28.49762
 2018-Nov-11 08:42     04 37 00.218307 +16 03 26.18975
 2018-Nov-11 08:43     04 37 00.349614 +16 03 23.88174
 2018-Nov-11 08:44     04 37 00.480840 +16 03 21.57358
 2018-Nov-11 08:45     04 37 00.611985 +16 03 19.26529
 2018-Nov-11 08:46     04 37 00.743050 +16 03 16.95685
 2018-Nov-11 08:47     04 37 00.874034 +16 03 14.64826
 2018-Nov-11 08:48     04 37 01.004937 +16 03 12.33952
 2018-Nov-11 08:49     04 37 01.135761 +16 03 10.03064
 2018-Nov-11 08:50     04 37 01.266506 +16 03 07.72161
 2018-Nov-11 08:51     04 37 01.397171 +16 03 05.41243
 2018-Nov-11 08:52     04 37 01.527758 +16 03 03.10310
 2018-Nov-11 08:53     04 37 01.658266 +16 03 00.79361
 2018-Nov-11 08:54     04 37 01.788697 +16 02 58.48397
 2018-Nov-11 08:55     04 37 01.919049 +16 02 56.17418
 2018-Nov-11 08:56     04 37 02.049324 +16 02 53.86423
 2018-Nov-11 08:57     04 37 02.179522 +16 02 51.55412
 2018-Nov-11 08:58     04 37 02.309644 +16 02 49.24386
 2018-Nov-11 08:59     04 37 02.439689 +16 02 46.93343
 2018-Nov-11 09:00     04 37 02.569657 +16 02 44.62285
 2018-Nov-11 09:01     04 37 02.699551 +16 02 42.31210
 2018-Nov-11 09:02     04 37 02.829369 +16 02 40.00120
 2018-Nov-11 09:03     04 37 02.959112 +16 02 37.69013
 2018-Nov-11 09:04     04 37 03.088780 +16 02 35.37889
 2018-Nov-11 09:05     04 37 03.218374 +16 02 33.06749
 2018-Nov-11 09:06     04 37 03.347894 +16 02 30.75592
 2018-Nov-11 09:07     04 37 03.477341 +16 02 28.44419
 2018-Nov-11 09:08     04 37 03.606714 +16 02 26.13229
 2018-Nov-11 09:09     04 37 03.736014 +16 02 23.82022
 2018-Nov-11 09:10     04 37 03.865242 +16 02 21.50797
 2018-Nov-11 09:11     04 37 03.994398 +16 02 19.19556
 2018-Nov-11 09:12     04 37 04.123482 +16 02 16.88297
 2018-Nov-11 09:13     04 37 04.252495 +16 02 14.57022
 2018-Nov-11 09:14     04 37 04.381437 +16 02 12.25728
 2018-Nov-11 09:15     04 37 04.510307 +16 02 09.94417
 2018-Nov-11 09:16     04 37 04.639108 +16 02 07.63089
 2018-Nov-11 09:17     04 37 04.767839 +16 02 05.31742
 2018-Nov-11 09:18     04 37 04.896500 +16 02 03.00378
 2018-Nov-11 09:19     04 37 05.025091 +16 02 00.68996
 2018-Nov-11 09:20     04 37 05.153614 +16 01 58.37596
 2018-Nov-11 09:21     04 37 05.282068 +16 01 56.06178
 2018-Nov-11 09:22     04 37 05.410455 +16 01 53.74742
 2018-Nov-11 09:23     04 37 05.538773 +16 01 51.43288
 2018-Nov-11 09:24     04 37 05.667024 +16 01 49.11815
 2018-Nov-11 09:25     04 37 05.795208 +16 01 46.80323
 2018-Nov-11 09:26     04 37 05.923326 +16 01 44.48813
 2018-Nov-11 09:27     04 37 06.051377 +16 01 42.17285
 2018-Nov-11 09:28     04 37 06.179362 +16 01 39.85737
 2018-Nov-11 09:29     04 37 06.307282 +16 01 37.54171
 2018-Nov-11 09:30     04 37 06.435137 +16 01 35.22586
 2018-Nov-11 09:31     04 37 06.562927 +16 01 32.90982
 2018-Nov-11 09:32     04 37 06.690652 +16 01 30.59359
 2018-Nov-11 09:33     04 37 06.818314 +16 01 28.27717
 2018-Nov-11 09:34     04 37 06.945912 +16 01 25.96056
 2018-Nov-11 09:35     04 37 07.073446 +16 01 23.64375
 2018-Nov-11 09:36     04 37 07.200918 +16 01 21.32674
 2018-Nov-11 09:37     04 37 07.328328 +16 01 19.00955
 2018-Nov-11 09:38     04 37 07.455675 +16 01 16.69215
 2018-Nov-11 09:39     04 37 07.582961 +16 01 14.37457
 2018-Nov-11 09:40     04 37 07.710185 +16 01 12.05678
 2018-Nov-11 09:41     04 37 07.837349 +16 01 09.73879
 2018-Nov-11 09:42     04 37 07.964452 +16 01 07.42061
 2018-Nov-11 09:43     04 37 08.091495 +16 01 05.10223
 2018-Nov-11 09:44     04 37 08.218478 +16 01 02.78364
 2018-Nov-11 09:45     04 37 08.345401 +16 01 00.46486
 2018-Nov-11 09:46     04 37 08.472266 +16 00 58.14587
 2018-Nov-11 09:47     04 37 08.599072 +16 00 55.82668
 2018-Nov-11 09:48     04 37 08.725821 +16 00 53.50729
 2018-Nov-11 09:49     04 37 08.852511 +16 00 51.18769
 2018-Nov-11 09:50     04 37 08.979144 +16 00 48.86789
 2018-Nov-11 09:51     04 37 09.105720 +16 00 46.54788
 2018-Nov-11 09:52     04 37 09.232239 +16 00 44.22767
 2018-Nov-11 09:53     04 37 09.358702 +16 00 41.90724
 2018-Nov-11 09:54     04 37 09.485110 +16 00 39.58662
 2018-Nov-11 09:55     04 37 09.611462 +16 00 37.26578
 2018-Nov-11 09:56     04 37 09.737759 +16 00 34.94473
 2018-Nov-11 09:57     04 37 09.864002 +16 00 32.62347
 2018-Nov-11 09:58     04 37 09.990190 +16 00 30.30201
 2018-Nov-11 09:59     04 37 10.116325 +16 00 27.98033
 2018-Nov-11 10:00     04 37 10.242406 +16 00 25.65844
 2018-Nov-11 10:01     04 37 10.368434 +16 00 23.33633
